0 FENGYUN 1C DEB
1 35241U 99025DQZ 13288.29310403  .00002052  00000-0  16197-2 0  3577
2 35241 098.5686 107.8005 0161432 223.4259 135.4090 13.86735816259886
0 FENGYUN 1C DEB
1 35241U 99025DQZ 13291.46779352  .00001867  00000-0  14760-2 0  3580
2 35241 098.5644 110.7116 0161748 214.5794 144.4761 13.86748137260327
0 FENGYUN 1C DEB
1 35241U 99025DQZ 13295.94118065  .00002209  00000-0  17401-2 0  3592
2 35241 098.5664 114.8140 0161405 202.4956 156.9071 13.86767295260943
